[{"OBJECT_NAME":"STARLINK-30305","OBJECT_ID":"2023-134E","EPOCH":"2023-09-15T20:00:01.000224","MEAN_MOTION":15.76790783,"ECCENTRICITY":0.0001593,"INCLINATION":43.0014,"RA_OF_ASC_NODE":89.7563,"ARG_OF_PERICENTER":208.2335,"MEAN_ANOMALY":359.2735,"EPHEMERIS_TYPE":0,"CLASSIFICATION_TYPE":"U","NORAD_CAT_ID":57775,"ELEMENT_SET_NO":999,"REV_AT_EPOCH":284,"BSTAR":-0.0056597,"MEAN_MOTION_DOT":-0.0085068,"MEAN_MOTION_DDOT":0},{"OBJECT_NAME":"STARLINK-30360","OBJECT_ID":"2023-134F","EPOCH":"2023-09-15T20:00:01.000224","MEAN_MOTION":15.76801268,"ECCENTRICITY":8.74e-5,"INCLINATION":43.0013,"RA_OF_ASC_NODE":89.7546,"ARG_OF_PERICENTER":228.8634,"MEAN_ANOMALY":339.1579,"EPHEMERIS_TYPE":0,"CLASSIFICATION_TYPE":"U","NORAD_CAT_ID":57776,"ELEMENT_SET_NO":999,"REV_AT_EPOCH":292,"BSTAR":-0.0056361,"MEAN_MOTION_DOT":-0.00847606,"MEAN_MOTION_DDOT":0},{"OBJECT_NAME":"STARLINK-30355","OBJECT_ID":"2023-134G","EPOCH":"2023-09-15T14:00:01.000224","MEAN_MOTION":15.77311284,"ECCENTRICITY":0.0001046,"INCLINATION":43.0015,"RA_OF_ASC_NODE":91.2723,"ARG_OF_PERICENTER":215.9685,"MEAN_ANOMALY":11.489,"EPHEMERIS_TYPE":0,"CLASSIFICATION_TYPE":"U","NORAD_CAT_ID":57777,"ELEMENT_SET_NO":999,"REV_AT_EPOCH":305,"BSTAR":-0.0057617,"MEAN_MOTION_DOT":-0.00882865,"MEAN_MOTION_DDOT":0},{"OBJECT_NAME":"STARLINK-30385","OBJECT_ID":"2023-134H","EPOCH":"2023-09-15T14:00:01.000224","MEAN_MOTION":15.77302836,"ECCENTRICITY":0.000509,"INCLINATION":43.0015,"RA_OF_ASC_NODE":91.2727,"ARG_OF_PERICENTER":241.7558,"MEAN_ANOMALY":345.4624,"EPHEMERIS_TYPE":0,"CLASSIFICATION_TYPE":"U","NORAD_CAT_ID":57778,"ELEMENT_SET_NO":999,"REV_AT_EPOCH":289,"BSTAR":-0.0057384,"MEAN_MOTION_DOT":-0.00881058,"MEAN_MOTION_DDOT":0},{"OBJECT_NAME":"STARLINK-30359","OBJECT_ID":"2023-134J","EPOCH":"2023-09-15T20:00:01.000224","MEAN_MOTION":15.76820102,"ECCENTRICITY":0.0002461,"INCLINATION":43.0014,"RA_OF_ASC_NODE":89.7527,"ARG_OF_PERICENTER":201.5816,"MEAN_ANOMALY":7.2466,"EPHEMERIS_TYPE":0,"CLASSIFICATION_TYPE":"U","NORAD_CAT_ID":57779,"ELEMENT_SET_NO":999,"REV_AT_EPOCH":292,"BSTAR":-0.0056372,"MEAN_MOTION_DOT":-0.00848922,"MEAN_MOTION_DDOT":0},{"OBJECT_NAME":"STARLINK-30380","OBJECT_ID":"2023-134K","EPOCH":"2023-09-15T20:00:01.000224","MEAN_MOTION":15.76828467,"ECCENTRICITY":0.0005604,"INCLINATION":43.0014,"RA_OF_ASC_NODE":89.7526,"ARG_OF_PERICENTER":192.0673,"MEAN_ANOMALY":17.016,"EPHEMERIS_TYPE":0,"CLASSIFICATION_TYPE":"U","NORAD_CAT_ID":57780,"ELEMENT_SET_NO":999,"REV_AT_EPOCH":284,"BSTAR":-0.005649,"MEAN_MOTION_DOT":-0.00852246,"MEAN_MOTION_DDOT":0},{"OBJECT_NAME":"STARLINK-30369","OBJECT_ID":"2023-134L","EPOCH":"2023-09-15T14:00:01.000224","MEAN_MOTION":15.7733096,"ECCENTRICITY":0.0001679,"INCLINATION":43.0018,"RA_OF_ASC_NODE":91.2707,"ARG_OF_PERICENTER":239.0977,"MEAN_ANOMALY":349.1423,"EPHEMERIS_TYPE":0,"CLASSIFICATION_TYPE":"U","NORAD_CAT_ID":57781,"ELEMENT_SET_NO":999,"REV_AT_EPOCH":299,"BSTAR":-0.0057777,"MEAN_MOTION_DOT":-0.00886,"MEAN_MOTION_DDOT":0},{"OBJECT_NAME":"STARLINK-30376","OBJECT_ID":"2023-134M","EPOCH":"2023-09-15T20:00:01.000224","MEAN_MOTION":15.76844369,"ECCENTRICITY":0.0003323,"INCLINATION":43.0017,"RA_OF_ASC_NODE":89.7503,"ARG_OF_PERICENTER":201.0916,"MEAN_ANOMALY":8.8076,"EPHEMERIS_TYPE":0,"CLASSIFICATION_TYPE":"U","NORAD_CAT_ID":57782,"ELEMENT_SET_NO":999,"REV_AT_EPOCH":308,"BSTAR":-0.0056333,"MEAN_MOTION_DOT":-0.00849564,"MEAN_MOTION_DDOT":0},{"OBJECT_NAME":"STARLINK-30389","OBJECT_ID":"2023-134N","EPOCH":"2023-09-15T14:00:01.000224","MEAN_MOTION":15.77335551,"ECCENTRICITY":0.0001501,"INCLINATION":43.0024,"RA_OF_ASC_NODE":91.2708,"ARG_OF_PERICENTER":230.4959,"MEAN_ANOMALY":358.031,"EPHEMERIS_TYPE":0,"CLASSIFICATION_TYPE":"U","NORAD_CAT_ID":57783,"ELEMENT_SET_NO":999,"REV_AT_EPOCH":281,"BSTAR":-0.0057596,"MEAN_MOTION_DOT":-0.00883595,"MEAN_MOTION_DDOT":0},{"OBJECT_NAME":"STARLINK-30388","OBJECT_ID":"2023-134P","EPOCH":"2023-09-15T20:00:01.000224","MEAN_MOTION":15.76848411,"ECCENTRICITY":0.0001626,"INCLINATION":43.0018,"RA_OF_ASC_NODE":89.7497,"ARG_OF_PERICENTER":188.5149,"MEAN_ANOMALY":21.6694,"EPHEMERIS_TYPE":0,"CLASSIFICATION_TYPE":"U","NORAD_CAT_ID":57784,"ELEMENT_SET_NO":999,"REV_AT_EPOCH":308,"BSTAR":-0.0056186,"MEAN_MOTION_DOT":-0.00847067,"MEAN_MOTION_DDOT":0},{"OBJECT_NAME":"STARLINK-30381","OBJECT_ID":"2023-134Q","EPOCH":"2023-09-15T20:00:01.000224","MEAN_MOTION":15.83053136,"ECCENTRICITY":0.0007179,"INCLINATION":43.0011,"RA_OF_ASC_NODE":89.1998,"ARG_OF_PERICENTER":197.6007,"MEAN_ANOMALY":231.0005,"EPHEMERIS_TYPE":0,"CLASSIFICATION_TYPE":"U","NORAD_CAT_ID":57785,"ELEMENT_SET_NO":999,"REV_AT_EPOCH":302,"BSTAR":-0.0044938,"MEAN_MOTION_DOT":-0.00900417,"MEAN_MOTION_DDOT":0},{"OBJECT_NAME":"STARLINK-30382","OBJECT_ID":"2023-134R","EPOCH":"2023-09-15T20:00:01.000224","MEAN_MOTION":15.76858699,"ECCENTRICITY":0.0006047,"INCLINATION":43.0018,"RA_OF_ASC_NODE":89.7491,"ARG_OF_PERICENTER":194.6596,"MEAN_ANOMALY":15.7792,"EPHEMERIS_TYPE":0,"CLASSIFICATION_TYPE":"U","NORAD_CAT_ID":57786,"ELEMENT_SET_NO":999,"REV_AT_EPOCH":284,"BSTAR":-0.0056426,"MEAN_MOTION_DOT":-0.00852662,"MEAN_MOTION_DDOT":0},{"OBJECT_NAME":"STARLINK-30378","OBJECT_ID":"2023-134S","EPOCH":"2023-09-15T14:00:01.000224","MEAN_MOTION":15.77387279,"ECCENTRICITY":0.0004244,"INCLINATION":43.002,"RA_OF_ASC_NODE":91.2676,"ARG_OF_PERICENTER":218.5074,"MEAN_ANOMALY":11.043,"EPHEMERIS_TYPE":0,"CLASSIFICATION_TYPE":"U","NORAD_CAT_ID":57787,"ELEMENT_SET_NO":999,"REV_AT_EPOCH":305,"BSTAR":-0.0060362,"MEAN_MOTION_DOT":-0.00924918,"MEAN_MOTION_DDOT":0},{"OBJECT_NAME":"STARLINK-30387","OBJECT_ID":"2023-134T","EPOCH":"2023-09-15T20:00:01.000224","MEAN_MOTION":15.77939908,"ECCENTRICITY":0.0004166,"INCLINATION":43.0018,"RA_OF_ASC_NODE":89.7448,"ARG_OF_PERICENTER":294.1606,"MEAN_ANOMALY":278.017,"EPHEMERIS_TYPE":0,"CLASSIFICATION_TYPE":"U","NORAD_CAT_ID":57788,"ELEMENT_SET_NO":999,"REV_AT_EPOCH":308,"BSTAR":0.0012523,"MEAN_MOTION_DOT":0.00224158,"MEAN_MOTION_DDOT":0},{"OBJECT_NAME":"STARLINK-30372","OBJECT_ID":"2023-134U","EPOCH":"2023-09-15T14:00:01.000224","MEAN_MOTION":15.77363583,"ECCENTRICITY":0.0002352,"INCLINATION":43.0018,"RA_OF_ASC_NODE":91.2667,"ARG_OF_PERICENTER":234.3288,"MEAN_ANOMALY":355.4905,"EPHEMERIS_TYPE":0,"CLASSIFICATION_TYPE":"U","NORAD_CAT_ID":57789,"ELEMENT_SET_NO":999,"REV_AT_EPOCH":305,"BSTAR":-0.00572,"MEAN_MOTION_DOT":-0.00879416,"MEAN_MOTION_DDOT":0},{"OBJECT_NAME":"STARLINK-30373","OBJECT_ID":"2023-134V","EPOCH":"2023-09-15T14:00:01.000224","MEAN_MOTION":15.77380388,"ECCENTRICITY":0.0002262,"INCLINATION":43.0019,"RA_OF_ASC_NODE":91.266,"ARG_OF_PERICENTER":257.8275,"MEAN_ANOMALY":332.5158,"EPHEMERIS_TYPE":0,"CLASSIFICATION_TYPE":"U","NORAD_CAT_ID":57790,"ELEMENT_SET_NO":999,"REV_AT_EPOCH":305,"BSTAR":-0.0057827,"MEAN_MOTION_DOT":-0.00888695,"MEAN_MOTION_DDOT":0}]
