STARLINK-30305          
1 57775U 23134E   23258.83334491 -.00850680  00000+0 -56597-2 0  9991
2 57775  43.0014  89.7563 0001593 208.2335 359.2735 15.76790783  2845
STARLINK-30360          
1 57776U 23134F   23258.83334491 -.00847606  00000+0 -56361-2 0  9995
2 57776  43.0013  89.7546 0000874 228.8634 339.1579 15.76801268  2920
STARLINK-30355          
1 57777U 23134G   23258.58334491 -.00882865  00000+0 -57617-2 0  9999
2 57777  43.0015  91.2723 0001046 215.9685  11.4890 15.77311284  3059
STARLINK-30385          
1 57778U 23134H   23258.58334491 -.00881058  00000+0 -57384-2 0  9994
2 57778  43.0015  91.2727 0005090 241.7558 345.4624 15.77302836  2892
STARLINK-30359          
1 57779U 23134J   23258.83334491 -.00848922  00000+0 -56372-2 0  9992
2 57779  43.0014  89.7527 0002461 201.5816   7.2466 15.76820102  2923
STARLINK-30380          
1 57780U 23134K   23258.83334491 -.00852246  00000+0 -56490-2 0  9999
2 57780  43.0014  89.7526 0005604 192.0673  17.0160 15.76828467  2844
STARLINK-30369          
1 57781U 23134L   23258.58334491 -.00886000  00000+0 -57777-2 0  9996
2 57781  43.0018  91.2707 0001679 239.0977 349.1423 15.77330960  2999
STARLINK-30376          
1 57782U 23134M   23258.83334491 -.00849564  00000+0 -56333-2 0  9996
2 57782  43.0017  89.7503 0003323 201.0916   8.8076 15.76844369  3081
STARLINK-30389          
1 57783U 23134N   23258.58334491 -.00883595  00000+0 -57596-2 0  9993
2 57783  43.0024  91.2708 0001501 230.4959 358.0310 15.77335551  2814
STARLINK-30388          
1 57784U 23134P   23258.83334491 -.00847067  00000+0 -56186-2 0  9990
2 57784  43.0018  89.7497 0001626 188.5149  21.6694 15.76848411  3088
STARLINK-30381          
1 57785U 23134Q   23258.83334491 -.00900417  00000+0 -44938-2 0  9992
2 57785  43.0011  89.1998 0007179 197.6007 231.0005 15.83053136  3022
STARLINK-30382          
1 57786U 23134R   23258.83334491 -.00852662  00000+0 -56426-2 0  9996
2 57786  43.0018  89.7491 0006047 194.6596  15.7792 15.76858699  2845
STARLINK-30378          
1 57787U 23134S   23258.58334491 -.00924918  00000+0 -60362-2 0  9997
2 57787  43.0020  91.2676 0004244 218.5074  11.0430 15.77387279  3050
STARLINK-30387          
1 57788U 23134T   23258.83334491  .00224158  00000+0  12523-2 0  9999
2 57788  43.0018  89.7448 0004166 294.1606 278.0170 15.77939908  3082
STARLINK-30372          
1 57789U 23134U   23258.58334491 -.00879416  00000+0 -57200-2 0  9998
2 57789  43.0018  91.2667 0002352 234.3288 355.4905 15.77363583  3054
STARLINK-30373          
1 57790U 23134V   23258.58334491 -.00888695  00000+0 -57827-2 0  9994
2 57790  43.0019  91.2660 0002262 257.8275 332.5158 15.77380388  3054
